[{"OBJECT_NAME":"AEROCUBE 4.5A","OBJECT_ID":"2012-048K","EPOCH":"2026-03-09T23:30:53.651232","MEAN_MOTION":15.62097136,"ECCENTRICITY":0.00407508,"INCLINATION":64.6384,"RA_OF_ASC_NODE":19.0525,"ARG_OF_PERICENTER":211.9552,"MEAN_ANOMALY":147.9122,"EPHEMERIS_TYPE":0,"CLASSIFICATION_TYPE":"U","NORAD_CAT_ID":38767,"ELEMENT_SET_NO":999,"REV_AT_EPOCH":35703,"BSTAR":0.0010922172,"MEAN_MOTION_DOT":0.00101362,"MEAN_MOTION_DDOT":0},{"OBJECT_NAME":"STARLINK-11400 [DTC]","OBJECT_ID":"2025-032N","EPOCH":"2026-03-09T00:00:04.000320","MEAN_MOTION":15.70878043,"ECCENTRICITY":0.00013668,"INCLINATION":43.0002,"RA_OF_ASC_NODE":199.731,"ARG_OF_PERICENTER":282.9212,"MEAN_ANOMALY":43.187,"EPHEMERIS_TYPE":0,"CLASSIFICATION_TYPE":"U","NORAD_CAT_ID":63017,"ELEMENT_SET_NO":999,"REV_AT_EPOCH":599,"BSTAR":-0.00078034624,"MEAN_MOTION_DOT":-0.00099546,"MEAN_MOTION_DDOT":0}]
